{
    "links": {
        "self": "http://www.neowsapp.com/rest/v1/neo/3663465?api_key=iIulBulltgU6a56xZRHN4H3l9WmuAYTsLGpBGhQ2"
    },
    "id": "3663465",
    "neo_reference_id": "3663465",
    "name": "(2014 ES3)",
    "designation": "2014 ES3",
    "nasa_jpl_url": "http://ssd.jpl.nasa.gov/sbdb.cgi?sstr=3663465",
    "absolute_magnitude_h": 26.0,
    "estimated_diameter": {
        "kilometers": {
            "estimated_diameter_min": 0.0167708462,
            "estimated_diameter_max": 0.0375007522
        },
        "meters": {
            "estimated_diameter_min": 16.7708462163,
            "estimated_diameter_max": 37.5007521798
        },
        "miles": {
            "estimated_diameter_min": 0.0104209175,
            "estimated_diameter_max": 0.0233018799
        },
        "feet": {
            "estimated_diameter_min": 55.0224631002,
            "estimated_diameter_max": 123.0339677816
        }
    },
    "is_potentially_hazardous_asteroid": false,
    "close_approach_data": [
        {
            "close_approach_date": "2014-02-24",
            "close_approach_date_full": "2014-Feb-24 01:02",
            "epoch_date_close_approach": 1393203720000,
            "relative_velocity": {
                "kilometers_per_second": "6.1793861735",
                "kilometers_per_hour": "22245.790224519",
                "miles_per_hour": "13822.6689314518"
            },
            "miss_distance": {
                "astronomical": "0.0295904225",
                "lunar": "11.5106743525",
                "kilometers": "4426664.178400075",
                "miles": "2750601.573368035"
            },
            "orbiting_body": "Earth"
        }
    ],
    "orbital_data": {
        "orbit_id": "7",
        "orbit_determination_date": "2017-04-06 08:42:10",
        "first_observation_date": "2014-03-06",
        "last_observation_date": "2014-03-12",
        "data_arc_in_days": 6,
        "observations_used": 21,
        "orbit_uncertainty": "8",
        "minimum_orbit_intersection": ".0246741",
        "jupiter_tisserand_invariant": "3.750",
        "epoch_osculation": "2456724.5",
        "eccentricity": ".480288182483853",
        "semi_major_axis": "1.943150458279843",
        "inclination": "1.156714303517909",
        "ascending_node_longitude": "176.2762229688329",
        "orbital_period": "989.3684816262517",
        "perihelion_distance": "1.009878256379951",
        "perihelion_argument": "326.7721250865932",
        "aphelion_distance": "2.876422660179734",
        "perihelion_time": "2456702.747768198378",
        "mean_anomaly": "7.914951399818414",
        "mean_motion": ".363868474370902",
        "equinox": "J2000",
        "orbit_class": {
            "orbit_class_type": "APO",
            "orbit_class_description": "Near-Earth asteroid orbits which cross the Earth’s orbit similar to that of 1862 Apollo",
            "orbit_class_range": "a (semi-major axis) > 1.0 AU; q (perihelion) < 1.017 AU"
        }
    },
    "is_sentry_object": false
}